satname,norad_id,inclination_deg,eccentricity,mean_motion_rev_per_day,perigee_km,apogee_km,l1,l2
STARLINK-1470,45772,53.0526,0.0007594,15.21045681,497.4599137062587,507.91050647894644,1 45772U 20038AU  25349.29370760  .00026874  00000+0  12045-2 0  9995,2 45772  53.0526 203.8706 0007594  86.1404 274.0460 15.21045681304207
STARLINK-1482,45773,53.0539,0.0001471,15.06399975,546.192915775534,548.2303533438217,1 45773U 20038AV  25349.32551121  .00002302  00000+0  17340-3 0  9996,2 45773  53.0539 215.3414 0001471  93.1008 267.0150 15.06399975304043
STARLINK-1496,45780,53.0525,0.0001822,15.06399948,545.9499187744987,548.4735158470867,1 45780U 20038BC  25349.35867737 -.00002804  00000+0 -16943-3 0  9997,2 45780  53.0525 215.1931 0001822  81.4616 278.6580 15.06399948304037
STARLINK-1497,45781,53.033,0.0003378,15.68221859,361.71111747250234,366.2660975329318,1 45781U 20038BD  25349.33335648  .00241591  00000+0  20634-2 0  9994,2 45781  53.0330 143.1801 0003378 124.9986 326.2424 15.68221859  5958
STARLINK-1510,45784,53.0214,0.0005074,15.93476161,289.17907334918345,295.9485005077586,1 45784U 20038BG  25349.33335648  .00284259  42086-4  78222-3 0  9997,2 45784  53.0214 112.9479 0005074 310.8269 267.8917 15.93476161  6002
STARLINK-1513,45786,53.0528,0.00015,15.0638947,546.2050239350156,548.2826381843342,1 45786U 20038BJ  25349.05644559  .00002256  00000+0  17036-3 0  9998,2 45786  53.0528 216.5521 0001500  95.7322 264.3838 15.06389470304005
STARLINK-1522,46027,53.0552,0.0001383,15.06394616,546.2702811843028,548.1858371596691,1 46027U 20055A   25349.16978326 -.00001306  00000+0 -68806-4 0  9999,2 46027  53.0552 146.0409 0001383  97.3452 262.7694 15.06394616296149
STARLINK-1523,46028,53.0554,0.0001044,15.06386079,546.5312132830604,547.9772349706573,1 46028U 20055B   25348.85278395 -.00000736  00000+0 -30554-4 0  9999,2 46028  53.0554 147.4666 0001044 113.5843 246.5256 15.06386079296116
STARLINK-1526,46029,53.0539,0.0001287,15.06391439,546.3465005582466,548.1290920308129,1 46029U 20055C   25349.17715450  .00001784  00000+0  13866-3 0  9992,2 46029  53.0539 146.0078 0001287  99.4333 260.6801 15.06391439296150
STARLINK-1555,46032,53.0532,0.0001498,15.06388953,546.207993323269,548.2828378949853,1 46032U 20055F   25349.16241427  .00000684  00000+0  64835-4 0  9994,2 46032  53.0532 146.0735 0001498  95.1166 264.9994 15.06388953296155
STARLINK-1556,46033,53.0525,0.0001172,15.06385399,546.4446521660775,548.067964357535,1 46033U 20055G   25348.87859089  .00000590  00000+0  58533-4 0  9995,2 46033  53.0525 147.3487 0001172  83.6380 276.4743 15.06385399296088
STARLINK-1557,46034,53.0541,0.0001255,15.06388257,546.378413014907,548.1166845366497,1 46034U 20055H   25348.74958887  .00000759  00000+0  69827-4 0  9993,2 46034  53.0541 147.9265 0001255  82.6339 277.4793 15.06388257296062
STARLINK-1558,46035,53.0546,0.0001317,15.0638759,546.33751964772,548.1616664763333,1 46035U 20055J   25348.82330317  .00001051  00000+0  89436-4 0  9999,2 46035  53.0546 147.5999 0001317  99.3249 260.7889 15.06387590296107
STARLINK-1560,46036,53.0542,0.0001284,15.0639122,546.3492492943997,548.1276857144549,1 46036U 20055K   25348.87490551  .00001362  00000+0  11037-3 0  9998,2 46036  53.0542 147.3687 0001284  81.3123 278.8012 15.06391220296115
STARLINK-1567,46038,53.0529,0.0001256,15.06387812,546.3790841841128,548.1187411253713,1 46038U 20055M   25348.75326610 -.00003096  00000+0 -18907-3 0  9992,2 46038  53.0529 147.9118 0001256  81.9571 278.1560 15.06387812296088
STARLINK-1569,46039,53.0554,0.0001673,15.06385171,546.098388642964,548.4156254777263,1 46039U 20055N   25348.82699515  .00000967  00000+0  83818-4 0  9994,2 46039  53.0554 147.5810 0001673  84.9069 275.2111 15.06385171296097
STARLINK-1582,46043,53.0548,0.0001372,15.063876,546.2993993766831,548.199725449409,1 46043U 20055S   25349.16609320 -.00001494  00000+0 -81439-4 0  9997,2 46043  53.0548 146.0577 0001372  91.5573 268.5573 15.06387600296141
STARLINK-1591,46045,53.0539,0.0001568,15.0639445,546.1426706201028,548.3144652622086,1 46045U 20055U   25348.86015339 -.00002016  00000+0 -11650-3 0  9994,2 46045  53.0539 147.4309 0001568  98.7277 261.3890 15.06394450296085
STARLINK-1524,46047,53.0535,0.0001762,15.06383024,546.0433318383939,548.4838430054015,1 46047U 20055W   25348.68048012  .00001463  00000+0  11712-3 0  9992,2 46047  53.0535 138.2393 0001762 123.6447 236.4710 15.06383024296211
STARLINK-1527,46048,53.0535,0.0001457,15.06408262,546.1772166184401,548.1952558094727,1 46048U 20055X   25348.67678842  .00002865  00000+0  21111-3 0  9993,2 46048  53.0535 138.2550 0001457  76.9793 283.1359 15.06408262296199
STARLINK-1540,46051,53.055,0.0001187,15.06394206,546.4072747890241,548.0513567523885,1 46051U 20055AA  25349.37342713  .00000261  00000+0  36412-4 0  9999,2 46051  53.0550 135.1293 0001187  92.0804 268.0321 15.06394206296331
STARLINK-1541,46052,53.0549,0.0001157,15.06403517,546.399517279775,548.0020404418046,1 46052U 20055AB  25348.82790774  .00002371  00000+0  17798-3 0  9992,2 46052  53.0549 137.5751 0001157  89.8373 270.2748 15.06403517296218
STARLINK-1543,46053,53.0546,0.000113,15.06377033,546.4993770384835,548.0645217210431,1 46053U 20055AC  25348.69890569  .00008182  00000+0  56789-3 0  9990,2 46053  53.0546 138.1555 0001130  82.1711 277.9406 15.06377033296227
STARLINK-1548,46054,53.0548,0.0001204,15.06396784,546.3876013795134,548.0552276857325,1 46054U 20055AD  25349.10434745  .00000801  00000+0  72678-4 0  9994,2 46054  53.0548 136.3355 0001204  90.8229 269.2898 15.06396784296289
STARLINK-1554,46055,53.0528,0.000176,15.0639827,545.9979978648007,548.43572242357,1 46055U 20055AE  25348.82422246  .00004188  00000+0  29989-3 0  9994,2 46055  53.0528 137.5925 0001760  94.4920 265.6270 15.06398270296241
STARLINK-1564,46058,53.0566,0.0001657,15.06393664,546.0834434600129,548.3785104075687,1 46058U 20055AH  25348.70263836 -.00000473  00000+0 -12857-4 0  9994,2 46058  53.0566 138.5976 0001657 123.9757 236.1390 15.06393664296219
STARLINK-1570,46059,53.0547,0.0001148,15.06389691,546.4481200770497,548.0381873603437,1 46059U 20055AJ  25348.79842375  .00000442  00000+0  48567-4 0  9996,2 46059  53.0547 137.7127 0001148  94.9141 265.1979 15.06389691296194
STARLINK-1572,46060,53.0531,0.0001238,15.06415836,546.3056711613763,548.0203754471459,1 46060U 20055AK  25348.86107818  .00002981  00000+0  21882-3 0  9992,2 46060  53.0531 137.4268 0001238  90.4849 269.6282 15.06415836296218
